NORAD_CAT_ID,OBJECT_NAME,OBJECT_TYPE,EPOCH,MEAN_MOTION,ECCENTRICITY,INCLINATION,RA_OF_ASC_NODE,ARG_OF_PERICENTER,MEAN_ANOMALY,BSTAR,MEAN_MOTION_DOT,MEAN_MOTION_DDOT,TLE_LINE0,TLE_LINE1,TLE_LINE2,SEMIMAJOR_AXIS,PERIOD,APOGEE,PERIGEE,DECAYED
53776.0,STARLINK-4708,PAYLOAD,2023-05-26 01:12:07,15.08836386,0.0001153,53.2153,172.136,74.93,285.1819,1.3854e-05,-6.7e-07,0.0,0 STARLINK-4708,1 53776U 22111D   23146.05008345 -.00000067  00000-0  13854-4 0  9995,2 53776  53.2153 172.1360 0001153  74.9300 285.1819 15.08836386 39039,6917.891,95.438,540.554,538.959,0.0
53776.0,STARLINK-4708,PAYLOAD,2023-05-26 09:09:02,15.08836167,0.0001136,53.215,170.6497,72.8427,287.2689,8.925e-06,-1.46e-06,0.0,0 STARLINK-4708,1 53776U 22111D   23146.38128422 -.00000146  00000-0  89250-5 0  9992,2 53776  53.2150 170.6497 0001136  72.8427 287.2689 15.08836167 40170,6917.892,95.438,540.543,538.971,0.0
53776.0,STARLINK-4708,PAYLOAD,2023-05-27 10:35:13,15.08838106,0.0001132,53.215,165.8917,71.3605,288.751,2.5462e-05,1.17e-06,0.0,0 STARLINK-4708,1 53776U 22111D   23147.44112342  .00000117  00000-0  25462-4 0  9995,2 53776  53.2150 165.8917 0001132  71.3605 288.7510 15.08838106 39241,6917.886,95.438,540.534,538.968,0.0
53776.0,STARLINK-4708,PAYLOAD,2023-05-27 18:32:08,15.08838704,0.0001132,53.2149,164.4048,70.5536,289.5579,2.4335e-05,9.9e-07,0.0,0 STARLINK-4708,1 53776U 22111D   23147.77232316  .00000099  00000-0  24335-4 0  9992,2 53776  53.2149 164.4048 0001132  70.5536 289.5579 15.08838704 40388,6917.884,95.438,540.532,538.966,0.0
53776.0,STARLINK-4708,PAYLOAD,2023-05-28 05:39:50,15.08839812,0.0001133,53.2149,162.323,69.8357,290.2757,3.1002e-05,2.06e-06,0.0,0 STARLINK-4708,1 53776U 22111D   23148.23600216  .00000206  00000-0  31002-4 0  9991,2 53776  53.2149 162.3230 0001133  69.8357 290.2757 15.08839812 40457,6917.881,95.438,540.53,538.962,0.0
53776.0,STARLINK-4708,PAYLOAD,2023-05-28 07:15:13,15.08840089,0.0001137,53.2148,162.0257,69.8352,290.2762,3.3015e-05,2.38e-06,0.0,0 STARLINK-4708,1 53776U 22111D   23148.30224188  .00000238  00000-0  33015-4 0  9990,2 53776  53.2148 162.0257 0001137  69.8352 290.2762 15.08840089 40466,6917.88,95.438,540.532,538.959,0.0
53776.0,STARLINK-4708,PAYLOAD,2023-05-29 00:44:28,15.0883909,0.0001158,53.2148,158.7546,69.1457,290.9659,1.0544e-05,-1.2e-06,0.0,0 STARLINK-4708,1 53776U 22111D   23149.03088310 -.00000120  00000-0  10544-4 0  9999,2 53776  53.2148 158.7546 0001158  69.1457 290.9659 15.08839090 39483,6917.883,95.438,540.549,538.947,0.0
53776.0,STARLINK-4708,PAYLOAD,2023-05-29 07:06:00,15.08839118,0.0001173,53.2148,157.5651,69.0598,291.052,1.0733e-05,-1.17e-06,0.0,0 STARLINK-4708,1 53776U 22111D   23149.29584295 -.00000117  00000-0  10733-4 0  9996,2 53776  53.2148 157.5651 0001173  69.0598 291.0520 15.08839118 40616,6917.883,95.438,540.56,538.937,0.0
53776.0,STARLINK-4708,PAYLOAD,2023-05-30 10:07:34,15.08837803,0.000119,53.215,152.5099,69.7672,290.3448,-8.5139e-06,-4.23e-06,0.0,0 STARLINK-4708,1 53776U 22111D   23150.42192471 -.00000423  00000-0 -85139-5 0  9998,2 53776  53.2150 152.5099 0001190  69.7672 290.3448 15.08837803 39695,6917.887,95.438,540.575,538.929,0.0
53776.0,STARLINK-4708,PAYLOAD,2023-05-31 06:47:35,15.08837695,0.0001224,53.215,148.6441,69.7733,290.339,1.3664e-05,-7e-07,0.0,0 STARLINK-4708,1 53776U 22111D   23151.28304510 -.00000070  00000-0  13664-4 0  9992,2 53776  53.2150 148.6441 0001224  69.7733 290.3390 15.08837695 40910,6917.887,95.438,540.599,538.906,0.0
53776.0,STARLINK-4708,PAYLOAD,2023-05-31 16:19:54,15.08835904,0.0001247,53.215,146.8602,69.9223,290.1903,7.0191e-06,-1.76e-06,0.0,0 STARLINK-4708,1 53776U 22111D   23151.68048710 -.00000176  00000-0  70191-5 0  9999,2 53776  53.2150 146.8602 0001247  69.9223 290.1903 15.08835904 39883,6917.893,95.438,540.621,538.895,0.0
53776.0,STARLINK-4708,PAYLOAD,2023-06-01 06:38:22,15.08836576,0.0001255,53.215,144.1842,70.1165,289.9962,1.4324e-05,-6e-07,0.0,0 STARLINK-4708,1 53776U 22111D   23152.27664775 -.00000060  00000-0  14324-4 0  9997,2 53776  53.2150 144.1842 0001255  70.1165 289.9962 15.08836576 41068,6917.891,95.438,540.624,538.888,0.0
53776.0,STARLINK-4708,PAYLOAD,2023-06-02 00:07:37,15.08835344,0.0001255,53.215,140.9129,73.6904,286.4226,1.1658e-06,-2.69e-06,0.0,0 STARLINK-4708,1 53776U 22111D   23153.00529056 -.00000269  00000-0  11658-5 0  9990,2 53776  53.2150 140.9129 0001255  73.6904 286.4226 15.08835344 40087,6917.895,95.438,540.628,538.891,0.0
53776.0,STARLINK-4708,PAYLOAD,2023-06-02 09:39:55,15.08836605,0.0001265,53.2151,139.1287,74.5709,285.5423,1.1496e-05,-1.05e-06,0.0,0 STARLINK-4708,1 53776U 22111D   23153.40273021 -.00000105  00000-0  11496-4 0  9990,2 53776  53.2151 139.1287 0001265  74.5709 285.5423 15.08836605 41235,6917.891,95.438,540.631,538.881,0.0
53776.0,STARLINK-4708,PAYLOAD,2023-06-03 03:09:10,15.08836065,0.0001275,53.2153,135.8575,75.0778,285.0355,1.7301e-05,-1.3e-07,0.0,0 STARLINK-4708,1 53776U 22111D   23154.13137193 -.00000013  00000-0  17301-4 0  9999,2 53776  53.2153 135.8575 0001275  75.0778 285.0355 15.08836065 40253,6917.892,95.438,540.639,538.875,0.0
53776.0,STARLINK-4708,PAYLOAD,2023-06-03 06:19:56,15.08836622,0.0001282,53.2153,135.2628,74.7484,285.3649,1.8251e-05,3e-08,0.0,0 STARLINK-4708,1 53776U 22111D   23154.26385190  .00000003  00000-0  18251-4 0  9998,2 53776  53.2153 135.2628 0001282  74.7484 285.3649 15.08836622 41365,6917.891,95.438,540.643,538.869,0.0
53776.0,STARLINK-4708,PAYLOAD,2023-06-03 15:52:15,15.08837167,0.0001278,53.2156,133.4785,75.1001,285.0132,2.8369e-05,1.64e-06,0.0,0 STARLINK-4708,1 53776U 22111D   23154.66129161  .00000164  00000-0  28369-4 0  9995,2 53776  53.2156 133.4785 0001278  75.1001 285.0132 15.08837167 41423,6917.889,95.438,540.638,538.87,0.0
53776.0,STARLINK-4708,PAYLOAD,2023-06-04 06:10:43,15.08839175,0.0001288,53.2158,130.802,75.5029,284.6106,4.0621e-05,3.59e-06,0.0,0 STARLINK-4708,1 53776U 22111D   23155.25745044  .00000359  00000-0  40621-4 0  9996,2 53776  53.2158 130.8020 0001288  75.5029 284.6106 15.08839175 40429,6917.883,95.438,540.639,538.857,0.0
53776.0,STARLINK-4708,PAYLOAD,2023-06-04 22:04:35,15.08833923,0.0001327,53.216,127.829,73.7409,286.3729,-3.4903e-06,-3.43e-06,0.0,0 STARLINK-4708,1 53776U 22111D   23155.91985642 -.00000343  00000-0 -34903-5 0  9991,2 53776  53.2160 127.8290 0001327  73.7409 286.3729 15.08833923 41610,6917.899,95.438,540.682,538.846,0.0
53776.0,STARLINK-4708,PAYLOAD,2023-06-05 04:26:08,15.08830711,0.0001273,53.2156,126.6384,76.9823,283.1312,-3.5701e-05,-8.56e-06,0.0,0 STARLINK-4708,1 53776U 22111D   23156.18482034 -.00000856  00000-0 -35701-4 0  9993,2 53776  53.2156 126.6384 0001273  76.9823 283.1312 15.08830711 40569,6917.909,95.438,540.654,538.893,0.0
53776.0,STARLINK-4708,PAYLOAD,2023-06-05 07:36:54,15.08829621,0.000128,53.216,126.0443,76.0064,284.1071,-4.2337e-05,-9.61e-06,0.0,0 STARLINK-4708,1 53776U 22111D   23156.31730203 -.00000961  00000-0 -42337-4 0  9992,2 53776  53.2160 126.0443 0001280  76.0064 284.1071 15.08829621 41674,6917.912,95.438,540.663,538.892,0.0
53776.0,STARLINK-4708,PAYLOAD,2023-06-05 21:55:23,15.08831572,0.000129,53.2162,123.3681,75.5487,284.5649,-3.2749e-05,-8.09e-06,0.0,0 STARLINK-4708,1 53776U 22111D   23156.91346326 -.00000809  00000-0 -32749-4 0  9994,2 53776  53.2162 123.3681 0001290  75.5487 284.5649 15.08831572 41767,6917.906,95.438,540.664,538.879,0.0
53776.0,STARLINK-4708,PAYLOAD,2023-06-06 07:27:42,15.08833545,0.0001334,53.2163,121.5836,80.3821,279.7321,-1.6077e-05,-5.44e-06,0.0,0 STARLINK-4708,1 53776U 22111D   23157.31090304 -.00000544  00000-0 -16077-4 0  9993,2 53776  53.2163 121.5836 0001334  80.3821 279.7321 15.08833545 40736,6917.9,95.438,540.688,538.842,0.0
53776.0,STARLINK-4708,PAYLOAD,2023-06-06 21:46:10,15.08831357,0.0001283,53.2163,118.9076,78.7004,281.4132,6.8185e-05,7.97e-06,0.0,0 STARLINK-4708,1 53776U 22111D   23157.90706319  .00000797  00000-0  68185-4 0  9993,2 53776  53.2163 118.9076 0001283  78.7004 281.4132 15.08831357 41919,6917.907,95.438,540.659,538.884,0.0
53776.0,STARLINK-4708,PAYLOAD,2023-06-07 07:18:28,15.08834948,0.0001305,53.2161,117.1234,77.7873,282.3265,9.1133e-05,1.163e-05,0.0,0 STARLINK-4708,1 53776U 22111D   23158.30450178  .00001163  00000-0  91133-4 0  9994,2 53776  53.2161 117.1234 0001305  77.7873 282.3265 15.08834948 41974,6917.896,95.438,540.664,538.858,0.0
53776.0,STARLINK-4708,PAYLOAD,2023-06-08 00:47:43,15.08839831,0.0001311,53.2162,113.8523,77.7859,282.328,7.8868e-05,9.68e-06,0.0,0 STARLINK-4708,1 53776U 22111D   23159.03314007  .00000968  00000-0  78868-4 0  9997,2 53776  53.2162 113.8523 0001311  77.7859 282.3280 15.08839831 40994,6917.881,95.438,540.653,538.839,0.0
53776.0,STARLINK-4708,PAYLOAD,2023-06-08 07:09:15,15.08842471,0.0001328,53.2162,112.6628,77.3621,282.752,8.4985e-05,1.065e-05,0.0,0 STARLINK-4708,1 53776U 22111D   23159.29809797  .00001065  00000-0  84985-4 0  9996,2 53776  53.2162 112.6628 0001328  77.3621 282.7520 15.08842471 42120,6917.873,95.437,540.657,538.819,0.0
53776.0,STARLINK-4708,PAYLOAD,2023-06-09 05:24:39,15.08842869,0.0001347,53.2161,108.4995,76.8493,283.265,2.1385e-05,5.2e-07,0.0,0 STARLINK-4708,1 53776U 22111D   23160.22545860  .00000052  00000-0  21385-4 0  9999,2 53776  53.2161 108.4995 0001347  76.8493 283.2650 15.08842869 41176,6917.872,95.437,540.668,538.805,0.0
53776.0,STARLINK-4708,PAYLOAD,2023-06-09 13:21:35,15.0883908,0.0001347,53.2162,107.0127,76.7326,283.3816,-1.3874e-05,-5.09e-06,0.0,0 STARLINK-4708,1 53776U 22111D   23160.55666199 -.00000509  00000-0 -13874-4 0  9997,2 53776  53.2162 107.0127 0001347  76.7326 283.3816 15.08839080 42316,6917.883,95.438,540.68,538.816,0.0
53776.0,STARLINK-4708,PAYLOAD,2023-06-10 05:15:27,15.08834892,0.0001416,53.2167,104.0396,79.7453,280.3698,-7.1368e-05,-1.423e-05,0.0,0 STARLINK-4708,1 53776U 22111D   23161.21906803 -.00001423  00000-0 -71368-4 0  9998,2 53776  53.2167 104.0396 0001416  79.7453 280.3698 15.08834892 41328,6917.896,95.438,540.741,538.781,0.0
